[{"OBJECT_NAME":"ICEYE-X30","OBJECT_ID":"2023-084R","EPOCH":"2026-03-09T21:18:40.033440","MEAN_MOTION":15.72701856,"ECCENTRICITY":0.00049319,"INCLINATION":97.5707,"RA_OF_ASC_NODE":220.1726,"ARG_OF_PERICENTER":282.9335,"MEAN_ANOMALY":77.1377,"EPHEMERIS_TYPE":0,"CLASSIFICATION_TYPE":"U","NORAD_CAT_ID":56947,"ELEMENT_SET_NO":999,"REV_AT_EPOCH":15325,"BSTAR":0.00083938221,"MEAN_MOTION_DOT":0.00114026,"MEAN_MOTION_DDOT":0},{"OBJECT_NAME":"GRAVITY-1 R\/B","OBJECT_ID":"2025-226E","EPOCH":"2026-03-09T19:25:48.916416","MEAN_MOTION":15.69045626,"ECCENTRICITY":0.01212739,"INCLINATION":97.7734,"RA_OF_ASC_NODE":162.4594,"ARG_OF_PERICENTER":208.3864,"MEAN_ANOMALY":151.0755,"EPHEMERIS_TYPE":0,"CLASSIFICATION_TYPE":"U","NORAD_CAT_ID":66205,"ELEMENT_SET_NO":999,"REV_AT_EPOCH":2108,"BSTAR":0.00045626025,"MEAN_MOTION_DOT":0.0007988,"MEAN_MOTION_DDOT":4.219159e-6}]
